[{"OBJECT_NAME":"STARLINK-32732","OBJECT_ID":"2025-003B","EPOCH":"2026-03-09T00:30:10.156032","MEAN_MOTION":15.27585522,"ECCENTRICITY":0.00021843,"INCLINATION":43.0035,"RA_OF_ASC_NODE":292.3743,"ARG_OF_PERICENTER":287.6864,"MEAN_ANOMALY":72.375,"EPHEMERIS_TYPE":0,"CLASSIFICATION_TYPE":"U","NORAD_CAT_ID":62488,"ELEMENT_SET_NO":999,"REV_AT_EPOCH":6645,"BSTAR":0.0010288474,"MEAN_MOTION_DOT":0.00028163,"MEAN_MOTION_DDOT":0},{"OBJECT_NAME":"OTTER","OBJECT_ID":"2025-009Q","EPOCH":"2026-03-09T17:21:07.902432","MEAN_MOTION":15.27809545,"ECCENTRICITY":0.00035728,"INCLINATION":97.4065,"RA_OF_ASC_NODE":151.3812,"ARG_OF_PERICENTER":310.771,"MEAN_ANOMALY":49.3219,"EPHEMERIS_TYPE":0,"CLASSIFICATION_TYPE":"U","NORAD_CAT_ID":62623,"ELEMENT_SET_NO":999,"REV_AT_EPOCH":6372,"BSTAR":0.00045151206,"MEAN_MOTION_DOT":0.00012198,"MEAN_MOTION_DDOT":0}]
